ORBCOMM FM37            
1 33064U 08031E   24211.91648726  .00002734  00000+0  41363-3 0  9996
2 33064  48.4407  72.7662 0005396  77.4678 296.2006 14.76912026866369
ORBCOMM FM40            
1 33065U 08031F   24211.92840338  .00003626  00000+0  52130-3 0  9996
2 33065  48.4430  61.2711 0006647  88.9568  47.7197 14.78357157866415
VESSELSAT 1             
1 37840U 11058C   24211.40401960  .00000448  00000+0  99985-4 0  9990
2 37840  19.9607 246.8264 0013534 236.0475 123.8642 14.11180367660652
ORBCOMM FM109           
1 40086U 14040A   24211.95891917  .00001786  00000+0  43158-3 0  9991
2 40086  47.0040  96.8194 0002285 276.4955  83.5670 14.56876817534056
ORBCOMM FM107           
1 40087U 14040B   24211.85553465  .00001249  00000+0  31294-3 0  9996
2 40087  47.0056  98.2801 0001611 246.7205 113.3511 14.56872268534114
ORBCOMM FM106           
1 40088U 14040C   24211.75151474  .00001915  00000+0  36742-3 0  9993
2 40088  47.0619 305.9494 0017552   5.7797 354.3293 14.67366837536080
ORBCOMM FM111           
1 40089U 14040D   24211.91884957  .00003983  00000+0  51411-3 0  9998
2 40089  47.0019 196.5804 0032074  91.6646 268.7923 14.82337636542343
ORBCOMM FM104           
1 40090U 14040E   24211.77294942  .00001190  00000+0  30976-3 0  9994
2 40090  47.0054 128.4949 0016658 173.6754 186.4343 14.55338354533631
